2022-023A               
1 51946U 22023A   26066.38437076  .00004303  00000+0  19500-3 0  9999
2 51946  63.4765 256.0240 0098533 341.4326  18.3199 15.18202647222269
STARLINK-34645          
1 64766U 25147M   26068.73392281  .00037155  00000+0  12598-2 0  9992
2 64766  53.1608 242.8920 0000783 102.8545 257.2543 15.30214596 38751
